SL-3 R/B                
1 13403U 82079B   26037.09702971  .00007474  00000+0  30199-3 0  9996
2 13403  81.1437 230.3707 0024114 273.7003  86.1473 15.24340142372886
SL-14 R/B               
1 13553U 82092B   26036.88505818  .00000784  00000+0  85284-4 0  9997
2 13553  82.5700 171.1379 0021489  49.6847  67.5250 14.86630365324200
SL-3 R/B                
1 13819U 83010B   26036.97666935  .00020080  00000+0  41894-3 0  9990
2 13819  81.1022  41.0956 0017746 152.2133 208.0063 15.45238880353043
SL-3 R/B                
1 14208U 83075B   26037.13224232  .00016316  00000+0  44074-3 0  9993
2 14208  97.6131  40.5400 0021440 348.2857  11.7885 15.37599131325302
COSMOS 1536             
1 14699U 84013A   26036.99848499  .00009353  00000+0  39052-3 0  9993
2 14699  82.5476 139.3348 0015066  38.6998 321.5315 15.23402379267792
SL-14 R/B               
1 14820U 84027B   26037.11155611  .00000576  00000+0  62955-4 0  9993
2 14820  82.5402 274.6355 0019524  78.9578 281.3833 14.85945460242940
SL-8 R/B                
1 15483U 85006B   26037.00427588  .00000347  00000+0  12376-3 0  9997
2 15483  74.0475 319.4512 0019580 243.2823 204.7341 14.37767142149470
SL-12 R/B(2)            
1 15772U 85042D   26036.76668616  .00000150  00000+0  88914-4 0  9993
2 15772  71.1085 155.1712 0035126 179.1084 291.0368 14.21973201109857
SL-14 R/B               
1 15945U 85069B   26037.03857586  .00000669  00000+0  72928-4 0  9994
2 15945  82.5239  54.7024 0017397 299.8834  60.0653 14.86395728168139
SL-16 R/B               
1 16182U 85097B   26036.93848584  .00000060  00000+0  53908-4 0  9997
2 16182  71.0014 207.3948 0009486 296.9006 175.6911 14.16596202 82731
SL-14 R/B               
1 16496U 86006B   26037.15855216  .00000999  00000+0  10343-3 0  9997
2 16496  82.5271 289.4148 0077165  18.3588 342.0385 14.86771380144524
COSMOS 1743             
1 16719U 86034A   26037.15791827  .00041793  00000+0  59208-3 0  9993
2 16719  82.5330 106.8624 0005187  59.3539 300.8226 15.56279843175340
