CCSDS_OMM_VERS = 2.0
CREATION_DATE  = 
ORIGINATOR     = 

OBJECT_NAME    = SL-3 R/B
OBJECT_ID      = 1982-079B
CENTER_NAME    = EARTH
REF_FRAME      = TEME
TIME_SYSTEM    = UTC
MEAN_ELEMENT_THEORY = SGP/SGP4

EPOCH          = 2026-02-06T02:19:43.366944
MEAN_MOTION    = 15.24340142
ECCENTRICITY   = .0024114
INCLINATION    = 81.1437
RA_OF_ASC_NODE = 230.3707
ARG_OF_PERICENTER = 273.7003
MEAN_ANOMALY   = 86.1473

EPHEMERIS_TYPE = 0
CLASSIFICATION_TYPE = U
NORAD_CAT_ID   = 13403
ELEMENT_SET_NO = 999
REV_AT_EPOCH   = 37288
BSTAR          = .30199E-3
MEAN_MOTION_DOT = .7474E-4
MEAN_MOTION_DDOT = 0

CCSDS_OMM_VERS = 2.0
CREATION_DATE  = 
ORIGINATOR     = 

OBJECT_NAME    = SL-14 R/B
OBJECT_ID      = 1982-092B
CENTER_NAME    = EARTH
REF_FRAME      = TEME
TIME_SYSTEM    = UTC
MEAN_ELEMENT_THEORY = SGP/SGP4

EPOCH          = 2026-02-05T21:14:29.026752
MEAN_MOTION    = 14.86630365
ECCENTRICITY   = .0021489
INCLINATION    = 82.5700
RA_OF_ASC_NODE = 171.1379
ARG_OF_PERICENTER = 49.6847
MEAN_ANOMALY   = 67.5250

EPHEMERIS_TYPE = 0
CLASSIFICATION_TYPE = U
NORAD_CAT_ID   = 13553
ELEMENT_SET_NO = 999
REV_AT_EPOCH   = 32420
BSTAR          = .85284E-4
MEAN_MOTION_DOT = .784E-5
MEAN_MOTION_DDOT = 0

CCSDS_OMM_VERS = 2.0
CREATION_DATE  = 
ORIGINATOR     = 

OBJECT_NAME    = SL-3 R/B
OBJECT_ID      = 1983-010B
CENTER_NAME    = EARTH
REF_FRAME      = TEME
TIME_SYSTEM    = UTC
MEAN_ELEMENT_THEORY = SGP/SGP4

EPOCH          = 2026-02-05T23:26:24.231840
MEAN_MOTION    = 15.45238880
ECCENTRICITY   = .0017746
INCLINATION    = 81.1022
RA_OF_ASC_NODE = 41.0956
ARG_OF_PERICENTER = 152.2133
MEAN_ANOMALY   = 208.0063

EPHEMERIS_TYPE = 0
CLASSIFICATION_TYPE = U
NORAD_CAT_ID   = 13819
ELEMENT_SET_NO = 999
REV_AT_EPOCH   = 35304
BSTAR          = .41894E-3
MEAN_MOTION_DOT = .2008E-3
MEAN_MOTION_DDOT = 0

CCSDS_OMM_VERS = 2.0
CREATION_DATE  = 
ORIGINATOR     = 

OBJECT_NAME    = SL-3 R/B
OBJECT_ID      = 1983-075B
CENTER_NAME    = EARTH
REF_FRAME      = TEME
TIME_SYSTEM    = UTC
MEAN_ELEMENT_THEORY = SGP/SGP4

EPOCH          = 2026-02-06T03:10:25.736448
MEAN_MOTION    = 15.37599131
ECCENTRICITY   = .002144
INCLINATION    = 97.6131
RA_OF_ASC_NODE = 40.5400
ARG_OF_PERICENTER = 348.2857
MEAN_ANOMALY   = 11.7885

EPHEMERIS_TYPE = 0
CLASSIFICATION_TYPE = U
NORAD_CAT_ID   = 14208
ELEMENT_SET_NO = 999
REV_AT_EPOCH   = 32530
BSTAR          = .44074E-3
MEAN_MOTION_DOT = .16316E-3
MEAN_MOTION_DDOT = 0

CCSDS_OMM_VERS = 2.0
CREATION_DATE  = 
ORIGINATOR     = 

OBJECT_NAME    = COSMOS 1536
OBJECT_ID      = 1984-013A
CENTER_NAME    = EARTH
REF_FRAME      = TEME
TIME_SYSTEM    = UTC
MEAN_ELEMENT_THEORY = SGP/SGP4

EPOCH          = 2026-02-05T23:57:49.103136
MEAN_MOTION    = 15.23402379
ECCENTRICITY   = .0015066
INCLINATION    = 82.5476
RA_OF_ASC_NODE = 139.3348
ARG_OF_PERICENTER = 38.6998
MEAN_ANOMALY   = 321.5315

EPHEMERIS_TYPE = 0
CLASSIFICATION_TYPE = U
NORAD_CAT_ID   = 14699
ELEMENT_SET_NO = 999
REV_AT_EPOCH   = 26779
BSTAR          = .39052E-3
MEAN_MOTION_DOT = .9353E-4
MEAN_MOTION_DDOT = 0

CCSDS_OMM_VERS = 2.0
CREATION_DATE  = 
ORIGINATOR     = 

OBJECT_NAME    = SL-14 R/B
OBJECT_ID      = 1984-027B
CENTER_NAME    = EARTH
REF_FRAME      = TEME
TIME_SYSTEM    = UTC
MEAN_ELEMENT_THEORY = SGP/SGP4

EPOCH          = 2026-02-06T02:40:38.447904
MEAN_MOTION    = 14.85945460
ECCENTRICITY   = .0019524
INCLINATION    = 82.5402
RA_OF_ASC_NODE = 274.6355
ARG_OF_PERICENTER = 78.9578
MEAN_ANOMALY   = 281.3833

EPHEMERIS_TYPE = 0
CLASSIFICATION_TYPE = U
NORAD_CAT_ID   = 14820
ELEMENT_SET_NO = 999
REV_AT_EPOCH   = 24294
BSTAR          = .62955E-4
MEAN_MOTION_DOT = .576E-5
MEAN_MOTION_DDOT = 0

CCSDS_OMM_VERS = 2.0
CREATION_DATE  = 
ORIGINATOR     = 

OBJECT_NAME    = SL-8 R/B
OBJECT_ID      = 1985-006B
CENTER_NAME    = EARTH
REF_FRAME      = TEME
TIME_SYSTEM    = UTC
MEAN_ELEMENT_THEORY = SGP/SGP4

EPOCH          = 2026-02-06T00:06:09.436032
MEAN_MOTION    = 14.37767142
ECCENTRICITY   = .001958
INCLINATION    = 74.0475
RA_OF_ASC_NODE = 319.4512
ARG_OF_PERICENTER = 243.2823
MEAN_ANOMALY   = 204.7341

EPHEMERIS_TYPE = 0
CLASSIFICATION_TYPE = U
NORAD_CAT_ID   = 15483
ELEMENT_SET_NO = 999
REV_AT_EPOCH   = 14947
BSTAR          = .12376E-3
MEAN_MOTION_DOT = .347E-5
MEAN_MOTION_DDOT = 0

CCSDS_OMM_VERS = 2.0
CREATION_DATE  = 
ORIGINATOR     = 

OBJECT_NAME    = SL-12 R/B(2)
OBJECT_ID      = 1985-042D
CENTER_NAME    = EARTH
REF_FRAME      = TEME
TIME_SYSTEM    = UTC
MEAN_ELEMENT_THEORY = SGP/SGP4

EPOCH          = 2026-02-05T18:24:01.684224
MEAN_MOTION    = 14.21973201
ECCENTRICITY   = .00351263
INCLINATION    = 71.1085
RA_OF_ASC_NODE = 155.1712
ARG_OF_PERICENTER = 179.1084
MEAN_ANOMALY   = 291.0368

EPHEMERIS_TYPE = 0
CLASSIFICATION_TYPE = U
NORAD_CAT_ID   = 15772
ELEMENT_SET_NO = 999
REV_AT_EPOCH   = 10985
BSTAR          = .88913781E-4
MEAN_MOTION_DOT = .15E-5
MEAN_MOTION_DDOT = 0

CCSDS_OMM_VERS = 2.0
CREATION_DATE  = 
ORIGINATOR     = 

OBJECT_NAME    = SL-14 R/B
OBJECT_ID      = 1985-069B
CENTER_NAME    = EARTH
REF_FRAME      = TEME
TIME_SYSTEM    = UTC
MEAN_ELEMENT_THEORY = SGP/SGP4

EPOCH          = 2026-02-06T00:55:32.954304
MEAN_MOTION    = 14.86395728
ECCENTRICITY   = .0017397
INCLINATION    = 82.5239
RA_OF_ASC_NODE = 54.7024
ARG_OF_PERICENTER = 299.8834
MEAN_ANOMALY   = 60.0653

EPHEMERIS_TYPE = 0
CLASSIFICATION_TYPE = U
NORAD_CAT_ID   = 15945
ELEMENT_SET_NO = 999
REV_AT_EPOCH   = 16813
BSTAR          = .72928E-4
MEAN_MOTION_DOT = .669E-5
MEAN_MOTION_DDOT = 0

CCSDS_OMM_VERS = 2.0
CREATION_DATE  = 
ORIGINATOR     = 

OBJECT_NAME    = SL-16 R/B
OBJECT_ID      = 1985-097B
CENTER_NAME    = EARTH
REF_FRAME      = TEME
TIME_SYSTEM    = UTC
MEAN_ELEMENT_THEORY = SGP/SGP4

EPOCH          = 2026-02-05T22:31:25.176576
MEAN_MOTION    = 14.16596202
ECCENTRICITY   = .0009486
INCLINATION    = 71.0014
RA_OF_ASC_NODE = 207.3948
ARG_OF_PERICENTER = 296.9006
MEAN_ANOMALY   = 175.6911

EPHEMERIS_TYPE = 0
CLASSIFICATION_TYPE = U
NORAD_CAT_ID   = 16182
ELEMENT_SET_NO = 999
REV_AT_EPOCH   = 8273
BSTAR          = .53908E-4
MEAN_MOTION_DOT = .6E-6
MEAN_MOTION_DDOT = 0

CCSDS_OMM_VERS = 2.0
CREATION_DATE  = 
ORIGINATOR     = 

OBJECT_NAME    = SL-14 R/B
OBJECT_ID      = 1986-006B
CENTER_NAME    = EARTH
REF_FRAME      = TEME
TIME_SYSTEM    = UTC
MEAN_ELEMENT_THEORY = SGP/SGP4

EPOCH          = 2026-02-06T03:48:18.906624
MEAN_MOTION    = 14.86771380
ECCENTRICITY   = .0077165
INCLINATION    = 82.5271
RA_OF_ASC_NODE = 289.4148
ARG_OF_PERICENTER = 18.3588
MEAN_ANOMALY   = 342.0385

EPHEMERIS_TYPE = 0
CLASSIFICATION_TYPE = U
NORAD_CAT_ID   = 16496
ELEMENT_SET_NO = 999
REV_AT_EPOCH   = 14452
BSTAR          = .10343E-3
MEAN_MOTION_DOT = .999E-5
MEAN_MOTION_DDOT = 0

CCSDS_OMM_VERS = 2.0
CREATION_DATE  = 
ORIGINATOR     = 

OBJECT_NAME    = COSMOS 1743
OBJECT_ID      = 1986-034A
CENTER_NAME    = EARTH
REF_FRAME      = TEME
TIME_SYSTEM    = UTC
MEAN_ELEMENT_THEORY = SGP/SGP4

EPOCH          = 2026-02-06T03:47:24.138528
MEAN_MOTION    = 15.56279843
ECCENTRICITY   = .0005187
INCLINATION    = 82.5330
RA_OF_ASC_NODE = 106.8624
ARG_OF_PERICENTER = 59.3539
MEAN_ANOMALY   = 300.8226

EPHEMERIS_TYPE = 0
CLASSIFICATION_TYPE = U
NORAD_CAT_ID   = 16719
ELEMENT_SET_NO = 999
REV_AT_EPOCH   = 17534
BSTAR          = .59208E-3
MEAN_MOTION_DOT = .41793E-3
MEAN_MOTION_DDOT = 0

